OBJECT_NAME,OBJECT_ID,EPOCH,MEAN_MOTION,ECCENTRICITY,INCLINATION,RA_OF_ASC_NODE,ARG_OF_PERICENTER,MEAN_ANOMALY,EPHEMERIS_TYPE,CLASSIFICATION_TYPE,NORAD_CAT_ID,ELEMENT_SET_NO,REV_AT_EPOCH,BSTAR,MEAN_MOTION_DOT,MEAN_MOTION_DDOT
GOSAT-GW (IBUKI GW),2025-141A,2026-07-06T14:55:29.169696,14.67553689,.00014122,98.0567,124.6232,84.0473,276.0892,0,U,64694,999,5469,.14333687E-3,.765E-5,0
IONOSFERA-M 3,2025-155A,2026-07-06T14:27:53.589312,14.21489741,.00020026,98.6034,149.0198,125.4496,234.6868,0,U,64876,999,4916,.36869494E-4,.38E-6,0
IONOSFERA-M 4,2025-155B,2026-07-06T13:36:39.480768,14.21492116,.00016524,98.6040,148.9023,107.7820,252.3538,0,U,64877,999,4915,.40411766E-4,.46E-6,0
MICROCARB,2025-156A,2026-07-06T04:12:35.142336,14.72878376,.00169077,98.0076,264.0040,199.7001,160.3555,0,U,64899,999,5076,.10149781E-3,.601E-5,0
CO3D 3,2025-156B,2026-07-06T08:12:34.361568,15.20209426,.00018303,97.4327,265.7599,104.5799,255.5639,0,U,64900,999,5244,.21865735E-3,.467E-4,0
CO3D 4,2025-156C,2026-07-06T08:12:47.855520,15.20201101,.00010059,97.4330,265.7600,171.7696,188.3556,0,U,64901,999,5244,.75756233E-4,.1573E-4,0
CO3D 2,2025-156D,2026-07-06T08:59:33.856224,15.20198121,.00013987,97.4328,265.6907,87.0655,273.0740,0,U,64902,999,5244,.2242932E-3,.479E-4,0
CO3D 1,2025-156E,2026-07-06T07:25:00.032160,15.20201636,.00013139,97.4328,265.6262,98.8284,261.3100,0,U,64903,999,5243,.20580308E-3,.439E-4,0
PRSC-S1,2025-164A,2026-07-06T10:09:01.454400,15.06591245,.0005326,41.1291,179.4638,135.4756,224.6487,0,U,65055,999,5133,.19836941E-3,.2813E-4,0
SENTINEL-6B,2025-264A,2026-07-06T03:16:21.504000,12.80930081,.0007892,66.0415,95.8222,268.8789,91.1322,0,U,66514,999,2959,.68988E-4,-.45E-6,0
CSG-3,2026-001A,2026-07-06T10:32:55.200192,14.82147751,.0001472,97.8892,10.7627,93.7064,266.4317,0,U,67304,999,2731,.43490104E-4,.294E-5,0
