GOSAT-GW (IBUKI GW)     
1 64694U 25141A   26187.62186539  .00000765  00000+0  14334-3 0  9991
2 64694  98.0567 124.6232 0001412  84.0473 276.0892 14.67553689 54692
IONOSFERA-M 3           
1 64876U 25155A   26187.60270358  .00000038  00000+0  36869-4 0  9990
2 64876  98.6034 149.0198 0002002 125.4496 234.6868 14.21489741 49168
IONOSFERA-M 4           
1 64877U 25155B   26187.56712362  .00000046  00000+0  40412-4 0  9990
2 64877  98.6040 148.9023 0001652 107.7820 252.3538 14.21492116 49155
MICROCARB               
1 64899U 25156A   26187.17540674  .00000601  00000+0  10150-3 0  9999
2 64899  98.0076 264.0040 0016907 199.7001 160.3555 14.72878376 50760
CO3D 3                  
1 64900U 25156B   26187.34206437  .00004670  00000+0  21866-3 0  9993
2 64900  97.4327 265.7599 0001830 104.5799 255.5639 15.20209426 52444
CO3D 4                  
1 64901U 25156C   26187.34222055  .00001573  00000+0  75756-4 0  9995
2 64901  97.4330 265.7600 0001005 171.7696 188.3556 15.20201101 52441
CO3D 2                  
1 64902U 25156D   26187.37469741  .00004790  00000+0  22429-3 0  9996
2 64902  97.4328 265.6907 0001398  87.0655 273.0740 15.20198121 52441
CO3D 1                  
1 64903U 25156E   26187.30902815  .00004390  00000+0  20580-3 0  9996
2 64903  97.4328 265.6262 0001313  98.8284 261.3100 15.20201636 52436
PRSC-S1                 
1 65055U 25164A   26187.42293350  .00002813  00000+0  19837-3 0  9995
2 65055  41.1291 179.4638 0005326 135.4756 224.6487 15.06591245 51339
SENTINEL-6B             
1 66514U 25264A   26187.13636000 -.00000045  00000+0  68988-4 0  9996
2 66514  66.0415  95.8222 0007892 268.8789  91.1322 12.80930081 29593
CSG-3                   
1 67304U 26001A   26187.43952778  .00000294  00000+0  43490-4 0  9996
2 67304  97.8892  10.7627 0001472  93.7064 266.4317 14.82147751 27313
